[
    {
        "Altitude(m)": 715251.6819566926,
        "Argument of Periapsis(deg)": 0.0034170363559881197,
        "Eccentricity": 0.0,
        "Inclination(deg)": 45.0,
        "Latitude(deg)": -38.801918750355966,
        "Longitude(deg)": -63.31768907058936,
        "Mean Anomaly(deg)": -61.994535005755765,
        "RAAN(deg)": 89.99677441756253,
        "Satellite Name": "Constellation 1 414",
        "Satellite Number": 414,
        "Semi-Major Axis(m)": 7083131.272910544,
        "Time(s)": 57
    },
    {
        "Altitude(m)": 715241.01887774,
        "Argument of Periapsis(deg)": 0.003476984362233526,
        "Eccentricity": 0.0,
        "Inclination(deg)": 45.0,
        "Latitude(deg)": -38.77611539582578,
        "Longitude(deg)": -63.2516135971761,
        "Mean Anomaly(deg)": -61.933833865505854,
        "RAAN(deg)": 89.99671782839697,
        "Satellite Name": "Constellation 1 414",
        "Satellite Number": 414,
        "Semi-Major Axis(m)": 7083131.272910544,
        "Time(s)": 58
    },
    {
        "Altitude(m)": 715230.3390679943,
        "Argument of Periapsis(deg)": 0.003536932368478932,
        "Eccentricity": 0.0,
        "Inclination(deg)": 45.0,
        "Latitude(deg)": -38.75026978427542,
        "Longitude(deg)": -63.18558875082553,
        "Mean Anomaly(deg)": -61.87313272525589,
        "RAAN(deg)": 89.9966612392314,
        "Satellite Name": "Constellation 1 414",
        "Satellite Number": 414,
        "Semi-Major Axis(m)": 7083131.272910544,
        "Time(s)": 59
    },
    {
        "Altitude(m)": 715219.6425662601,
        "Argument of Periapsis(deg)": 0.003596880374724337,
        "Eccentricity": 0.0,
        "Inclination(deg)": 45.0,
        "Latitude(deg)": -38.72438198400691,
        "Longitude(deg)": -63.119614194568825,
        "Mean Anomaly(deg)": -61.81243158500603,
        "RAAN(deg)": 89.99660465006583,
        "Satellite Name": "Constellation 1 414",
        "Satellite Number": 414,
        "Semi-Major Axis(m)": 7083131.272910544,
        "Time(s)": 60
    },
    {
        "Altitude(m)": 715208.929411413,
        "Argument of Periapsis(deg)": 0.0036568283809697427,
        "Eccentricity": 0.0,
        "Inclination(deg)": 45.0,
        "Latitude(deg)": -38.69845206330194,
        "Longitude(deg)": -63.05369009534991,
        "Mean Anomaly(deg)": -61.75173044475617,
        "RAAN(deg)": 89.99654806090025,
        "Satellite Name": "Constellation 1 414",
        "Satellite Number": 414,
        "Semi-Major Axis(m)": 7083131.272910544,
        "Time(s)": 61
    },
    {
        "Altitude(m)": 715198.1996423721,
        "Argument of Periapsis(deg)": 0.003716776387215149,
        "Eccentricity": 0.0,
        "Inclination(deg)": 45.0,
        "Latitude(deg)": -38.67248009042127,
        "Longitude(deg)": -62.98781645163812,
        "Mean Anomaly(deg)": -61.69102930450626,
        "RAAN(deg)": 89.99649147173469,
        "Satellite Name": "Constellation 1 414",
        "Satellite Number": 414,
        "Semi-Major Axis(m)": 7083131.272910544,
        "Time(s)": 62
    },
    {
        "Altitude(m)": 715187.4532981215,
        "Argument of Periapsis(deg)": 0.003776724393460554,
        "Eccentricity": 0.0,
        "Inclination(deg)": 45.0,
        "Latitude(deg)": -38.64646613360422,
        "Longitude(deg)": -62.921993261526744,
        "Mean Anomaly(deg)": -61.630328164256305,
        "RAAN(deg)": 89.99643488256913,
        "Satellite Name": "Constellation 1 414",
        "Satellite Number": 414,
        "Semi-Major Axis(m)": 7083131.272910544,
        "Time(s)": 63
    },
    {
        "Altitude(m)": 715176.6904176943,
        "Argument of Periapsis(deg)": 0.003836672399705959,
        "Eccentricity": 0.0,
        "Inclination(deg)": 45.0,
        "Latitude(deg)": -38.62041026106832,
        "Longitude(deg)": -62.85622052273484,
        "Mean Anomaly(deg)": -61.56962702400645,
        "RAAN(deg)": 89.99637829340355,
        "Satellite Name": "Constellation 1 414",
        "Satellite Number": 414,
        "Semi-Major Axis(m)": 7083131.272910544,
        "Time(s)": 64
    },
    {
        "Altitude(m)": 715165.9110401941,
        "Argument of Periapsis(deg)": 0.003896620405951365,
        "Eccentricity": 0.0,
        "Inclination(deg)": 45.0,
        "Latitude(deg)": -38.59431254100863,
        "Longitude(deg)": -62.790498232607945,
        "Mean Anomaly(deg)": -61.50892588375654,
        "RAAN(deg)": 89.99632170423799,
        "Satellite Name": "Constellation 1 414",
        "Satellite Number": 414,
        "Semi-Major Axis(m)": 7083131.272910544,
        "Time(s)": 65
    },
    {
        "Altitude(m)": 715155.1152047643,
        "Argument of Periapsis(deg)": 0.003956568412196771,
        "Eccentricity": 0.0,
        "Inclination(deg)": 45.0,
        "Latitude(deg)": -38.56817304159745,
        "Longitude(deg)": -62.72482638812016,
        "Mean Anomaly(deg)": -61.44822474350668,
        "RAAN(deg)": 89.9962651150724,
        "Satellite Name": "Constellation 1 414",
        "Satellite Number": 414,
        "Semi-Major Axis(m)": 7083131.272910544,
        "Time(s)": 66
    },
    {
        "Altitude(m)": 715144.3029506238,
        "Argument of Periapsis(deg)": 0.004016516418442176,
        "Eccentricity": 0.0,
        "Inclination(deg)": 45.0,
        "Latitude(deg)": -38.541991830983804,
        "Longitude(deg)": -62.65920515397251,
        "Mean Anomaly(deg)": -61.387523603256724,
        "RAAN(deg)": 89.99620852590685,
        "Satellite Name": "Constellation 1 414",
        "Satellite Number": 414,
        "Semi-Major Axis(m)": 7083131.272910544,
        "Time(s)": 67
    },
    {
        "Altitude(m)": 715133.4743170314,
        "Argument of Periapsis(deg)": 0.004076464424687581,
        "Eccentricity": 0.0,
        "Inclination(deg)": 45.0,
        "Latitude(deg)": -38.515768977292744,
        "Longitude(deg)": -62.59363419020547,
        "Mean Anomaly(deg)": -61.32682246300686,
        "RAAN(deg)": 89.99615193674127,
        "Satellite Name": "Constellation 1 414",
        "Satellite Number": 414,
        "Semi-Major Axis(m)": 7083131.272910544,
        "Time(s)": 68
    },
    {
        "Altitude(m)": 715122.6293433115,
        "Argument of Periapsis(deg)": 0.004136412430932987,
        "Eccentricity": 0.0,
        "Inclination(deg)": 45.0,
        "Latitude(deg)": -38.48950454862525,
        "Longitude(deg)": -62.52811366078381,
        "Mean Anomaly(deg)": -61.266121322756945,
        "RAAN(deg)": 89.9960953475757,
        "Satellite Name": "Constellation 1 414",
        "Satellite Number": 414,
        "Semi-Major Axis(m)": 7083131.272910544,
        "Time(s)": 69
    },
    {
        "Altitude(m)": 715111.7680688463,
        "Argument of Periapsis(deg)": 0.004196360437178394,
        "Eccentricity": 0.0,
        "Inclination(deg)": 45.0,
        "Latitude(deg)": -38.46319861305758,
        "Longitude(deg)": -62.462643561209106,
        "Mean Anomaly(deg)": -61.205420182507034,
        "RAAN(deg)": 89.99603875841012,
        "Satellite Name": "Constellation 1 414",
        "Satellite Number": 414,
        "Semi-Major Axis(m)": 7083131.272910544,
        "Time(s)": 70
    },
    {
        "Altitude(m)": 715100.8905330646,
        "Argument of Periapsis(deg)": 0.004256308443423799,
        "Eccentricity": 0.0,
        "Inclination(deg)": 45.0,
        "Latitude(deg)": -38.43685123864082,
        "Longitude(deg)": -62.397223886618335,
        "Mean Anomaly(deg)": -61.14471904225712,
        "RAAN(deg)": 89.99598216924457,
        "Satellite Name": "Constellation 1 414",
        "Satellite Number": 414,
        "Semi-Major Axis(m)": 7083131.272910544,
        "Time(s)": 71
    },
    {
        "Altitude(m)": 715089.9967754561,
        "Argument of Periapsis(deg)": 0.004316256449669204,
        "Eccentricity": 0.0,
        "Inclination(deg)": 45.0,
        "Latitude(deg)": -38.41046249340049,
        "Longitude(deg)": -62.331854631785546,
        "Mean Anomaly(deg)": -61.08401790200721,
        "RAAN(deg)": 89.995925580079,
        "Satellite Name": "Constellation 1 414",
        "Satellite Number": 414,
        "Semi-Major Axis(m)": 7083131.272910544,
        "Time(s)": 72
    },
    {
        "Altitude(m)": 715079.0868355724,
        "Argument of Periapsis(deg)": 0.00437620445591461,
        "Eccentricity": 0.0,
        "Inclination(deg)": 45.0,
        "Latitude(deg)": -38.3840324453359,
        "Longitude(deg)": -62.266535791122976,
        "Mean Anomaly(deg)": -61.02331676175736,
        "RAAN(deg)": 89.99586899091342,
        "Satellite Name": "Constellation 1 414",
        "Satellite Number": 414,
        "Semi-Major Axis(m)": 7083131.272910544,
        "Time(s)": 73
    },
    {
        "Altitude(m)": 715068.1607530115,
        "Argument of Periapsis(deg)": 0.004436152462160016,
        "Eccentricity": 0.0,
        "Inclination(deg)": 45.0,
        "Latitude(deg)": -38.35756116241997,
        "Longitude(deg)": -62.2012675267798,
        "Mean Anomaly(deg)": -60.962615621507496,
        "RAAN(deg)": 89.99581240174786,
        "Satellite Name": "Constellation 1 414",
        "Satellite Number": 414,
        "Semi-Major Axis(m)": 7083131.272910544,
        "Time(s)": 74
    },
    {
        "Altitude(m)": 715057.2185674304,
        "Argument of Periapsis(deg)": 0.0044961004684054215,
        "Eccentricity": 0.0,
        "Inclination(deg)": 45.0,
        "Latitude(deg)": -38.3310487125984,
        "Longitude(deg)": -62.13604949625465,
        "Mean Anomaly(deg)": -60.901914481257535,
        "RAAN(deg)": 89.99575581258229,
        "Satellite Name": "Constellation 1 414",
        "Satellite Number": 414,
        "Semi-Major Axis(m)": 7083131.272910544,
        "Time(s)": 75
    }
]